OBJECT_NAME,OBJECT_ID,EPOCH,MEAN_MOTION,ECCENTRICITY,INCLINATION,RA_OF_ASC_NODE,ARG_OF_PERICENTER,MEAN_ANOMALY,EPHEMERIS_TYPE,CLASSIFICATION_TYPE,NORAD_CAT_ID,ELEMENT_SET_NO,REV_AT_EPOCH,BSTAR,MEAN_MOTION_DOT,MEAN_MOTION_DDOT
STARLINK-31403,2024-045J,2026-06-14T21:35:35.611872,15.27573565,.0001325,42.9952,242.1263,274.6491,85.4210,0,U,59186,999,12821,.31447E-5,-.175E-5,0
STARLINK-31514,2024-045K,2026-06-15T12:41:47.125824,15.27567809,.0001197,42.9980,260.0862,252.9341,107.1379,0,U,59187,999,12812,-.24553E-4,-.937E-5,0
STARLINK-31478,2024-045L,2026-06-14T23:53:42.294624,15.27562507,.00015375,43.0022,262.9593,284.8920,75.1762,0,U,59188,999,12804,-.40635183E-3,-.11421E-3,0
STARLINK-31498,2024-045M,2026-06-15T13:03:59.354208,15.27566808,.00015,43.0000,260.1982,280.8728,79.1955,0,U,59189,999,12812,-.16169E-4,-.707E-5,0
STARLINK-31563,2024-045N,2026-06-14T00:04:44.683680,15.27564471,.00011161,43.0019,268.4137,280.8180,79.2546,0,U,59190,999,12789,-.46350775E-4,-.1537E-4,0
STARLINK-31551,2024-045P,2026-06-14T23:21:07.535232,15.27570962,.00013124,43.0106,259.3592,272.6673,87.4029,0,U,59191,999,12808,-.22305262E-4,-.876E-5,0
STARLINK-31536,2024-045Q,2026-06-15T12:00:02.000160,15.27578393,.0001463,43.0022,260.1603,271.1117,324.6980,0,U,59192,999,569,-.14668E-3,-.4296E-4,0
STARLINK-31548,2024-045R,2026-06-15T13:13:14.545056,15.27569961,.0001752,43.0000,260.2464,279.9916,80.0738,0,U,59193,999,12812,-.15159E-4,-.679E-5,0
STARLINK-31542,2024-045S,2026-06-15T13:24:08.047008,15.27568639,.0001569,42.9988,259.4439,276.9595,83.1078,0,U,59194,999,12813,.12261E-4,.75E-6,0
STARLINK-31554,2024-045T,2026-06-15T12:52:52.745376,15.27575508,.0001318,43.0020,260.1442,264.6952,95.3749,0,U,59195,999,12812,.9012E-5,-.14E-6,0
STARLINK-31558,2024-045U,2026-06-15T13:29:40.412256,15.27575492,.0001751,42.9944,259.4736,261.1934,98.8719,0,U,59196,999,12814,.13557E-4,.111E-5,0
STARLINK-31275,2024-045V,2026-06-15T12:58:26.054112,15.27574999,.0000155,43.0075,260.1760,236.9925,123.0912,0,U,59197,999,12812,.45553E-3,.12292E-3,0
STARLINK-31590,2024-045W,2026-06-15T13:09:32.181696,15.27575433,.0001215,42.9960,260.2241,278.8776,81.1938,0,U,59198,999,12812,.12476E-4,.81E-6,0
STARLINK-31567,2024-045X,2026-06-14T23:42:36.697536,15.27578561,.00022058,43.0010,262.9083,270.1236,89.9363,0,U,59199,999,12804,-.4410241E-5,-.384E-5,0
STARLINK-31503,2024-045Y,2026-06-14T23:48:09.373824,15.27597715,.00011453,42.9974,262.9307,263.8790,96.1932,0,U,59200,999,12804,.13214598E-3,.3378E-4,0
STARLINK-31603,2024-046A,2026-06-14T23:54:01.424448,15.30202281,.00011148,53.1616,63.6456,95.6237,264.4891,0,U,59201,999,12794,.1658585E-4,.132E-5,0
STARLINK-31602,2024-046B,2026-06-15T09:48:24.747264,15.34396791,.0001448,53.1609,59.8286,90.3350,269.7819,0,U,59202,999,12803,-.14274E-4,-.859E-5,0
STARLINK-31577,2024-046C,2026-06-15T12:00:02.000160,15.34365435,.0001495,53.1593,59.1256,99.5137,185.3282,0,U,59203,999,586,.10536E-2,.3535E-3,0
STARLINK-31522,2024-046D,2026-06-14T23:50:59.025408,15.30203444,.00013192,53.1612,63.6353,92.3175,267.7977,0,U,59204,999,12794,.15124487E-4,.89E-6,0
STARLINK-31586,2024-046E,2026-06-15T10:12:52.843968,15.30197038,.0001698,53.1599,61.3456,88.7391,271.3804,0,U,59205,999,12801,.37648E-4,.756E-5,0
STARLINK-31247,2024-046F,2026-06-14T23:34:16.481280,15.30205419,.00011765,53.1592,63.5530,64.9486,295.1637,0,U,59206,999,12794,.22097781E-3,.6192E-4,0
STARLINK-31591,2024-046G,2026-06-15T00:28:39.405792,15.34404569,.00013958,53.1605,61.6714,90.5747,269.5416,0,U,59207,999,12797,.16741311E-3,.5285E-4,0
STARLINK-31576,2024-046H,2026-06-15T00:34:42.765312,15.34403663,.00011104,53.1598,61.6904,97.0948,263.0181,0,U,59208,999,12797,.16901212E-3,.5339E-4,0
STARLINK-31601,2024-046J,2026-06-14T23:58:21.446976,15.34400343,.00013886,53.1625,61.5389,96.4252,263.6909,0,U,59209,999,12797,-.3801097E-5,-.505E-5,0
STARLINK-31520,2024-046K,2026-06-14T23:29:42.849888,15.30193387,.00015003,53.1611,63.5305,98.5632,261.5539,0,U,59210,999,12794,-.35330419E-4,-.1405E-4,0
STARLINK-31496,2024-046L,2026-06-15T08:54:45.315648,15.30201970,.0001477,53.1621,48.9434,121.8423,238.2721,0,U,59211,999,12817,-.4209E-5,-.484E-5,0
STARLINK-31492,2024-046M,2026-06-14T23:57:04.612320,15.30202060,.00005077,53.1607,63.6447,48.7366,311.3678,0,U,59212,999,12793,-.61202043E-4,-.2171E-4,0
STARLINK-31517,2024-046N,2026-06-15T10:00:32.732064,15.34383965,.0001421,53.1617,59.9056,92.0536,268.0629,0,U,59213,999,12802,-.33375E-4,-.1503E-4,0
STARLINK-31604,2024-046P,2026-06-15T00:31:40.944288,15.34407445,.00013832,53.1609,61.6746,89.6353,270.4808,0,U,59214,999,12796,.73604653E-4,.2112E-4,0
STARLINK-31434,2024-046Q,2026-06-14T23:55:19.403904,15.34405108,.0001656,53.1626,61.5294,113.8099,246.3077,0,U,59215,999,12796,.13181711E-4,.69E-6,0
STARLINK-31417,2024-046R,2026-06-14T23:55:32.351808,15.30200302,.00011744,53.1615,63.6472,92.6308,267.4827,0,U,59216,999,12781,.85592252E-4,.2177E-4,0
STARLINK-31499,2024-046S,2026-06-15T09:36:16.886880,15.34400784,.0001141,53.1608,59.7742,100.3755,259.7376,0,U,59217,999,12802,.95859E-5,-.52E-6,0
STARLINK-31421,2024-046T,2026-06-15T00:01:24.535488,15.34389984,.00017696,53.1627,61.5796,127.8140,232.3023,0,U,59218,999,12796,.34112881E-4,.776E-5,0
STARLINK-31518,2024-046U,2026-06-15T09:42:20.307744,15.34400446,.000089,53.1609,59.8020,119.0498,241.0594,0,U,59219,999,12802,.13278E-4,.73E-6,0
STARLINK-31523,2024-046V,2026-06-15T10:03:33.372000,15.34390146,.0001317,53.1611,59.8893,89.4444,270.6709,0,U,59220,999,12802,-.18684E-4,-.1007E-4,0
STARLINK-31516,2024-046W,2026-06-15T09:30:13.236192,15.34398298,.000126,53.1623,59.7486,95.2774,264.8372,0,U,59221,999,12802,-.46541E-5,-.533E-5,0
STARLINK-31490,2024-046X,2026-06-14T23:52:29.929440,15.30200246,.00012952,53.1618,63.6295,86.5856,273.5293,0,U,59222,999,12793,.28892246E-4,.497E-5,0
STARLINK-31420,2024-046Y,2026-06-14T23:47:57.365952,15.30189793,.00011435,53.1611,63.6046,90.7248,269.3884,0,U,59223,999,12793,-.44554689E-4,-.1678E-4,0
STRIX-3,2024-047A,2026-06-15T12:45:56.967840,15.19348977,.0015211,97.6621,142.1829,71.9111,288.3779,0,U,59224,999,12449,.36272E-3,.762E-4,0
STARLINK-31305,2024-049B,2026-06-13T17:03:53.983872,15.27576892,.00012544,42.9994,321.0398,264.0993,95.9716,0,U,59232,999,12707,.10152249E-4,.17E-6,0
STARLINK-31459,2024-049C,2026-06-15T02:23:23.484768,15.27578599,.00012762,43.0053,313.4207,262.3626,97.7081,0,U,59233,999,12729,.17758752E-4,.227E-5,0
STARLINK-31438,2024-049D,2026-06-14T15:50:14.282592,15.27576088,.00018947,43.0079,304.8977,275.6601,84.4035,0,U,59234,999,12735,.16677949E-4,.196E-5,0
STARLINK-31467,2024-049E,2026-06-15T02:19:41.465280,15.27576089,.00011144,43.0043,313.3997,276.7248,83.3477,0,U,59235,999,12730,.59683562E-4,.138E-4,0
STARLINK-31444,2024-049F,2026-06-15T12:00:02.000160,15.35818809,.0003535,42.9988,237.4730,11.1575,293.5763,0,U,59236,999,592,.17305E-2,.61862E-3,0
STARLINK-31505,2024-049G,2026-06-15T02:28:57.497664,15.27537632,.00013898,42.9926,313.4568,278.7107,81.3587,0,U,59237,999,12730,.36765619E-3,.9856E-4,0
STARLINK-31494,2024-049H,2026-06-14T16:32:33.128448,15.27575540,.00012549,43.0007,315.4984,249.0594,111.0123,0,U,59238,999,12724,.13849954E-4,.119E-5,0
STARLINK-31303,2024-049J,2026-06-15T01:39:12.585888,15.27588034,.00013938,43.0025,302.7443,270.6916,89.3776,0,U,59239,999,12742,-.78784686E-4,-.243E-4,0
STARLINK-31408,2024-049K,2026-06-15T02:54:50.361408,15.27582673,.00009871,43.0045,313.5853,312.2110,47.8658,0,U,59240,999,12730,.25914308E-4,.451E-5,0
STARLINK-31427,2024-049L,2026-06-15T03:00:22.535712,15.27585836,.00018714,43.0111,313.5848,269.0447,91.0190,0,U,59241,999,12730,.3992825E-4,.837E-5,0
STARLINK-31423,2024-049M,2026-06-15T02:51:09.478080,15.27570476,.0000685,43.0017,313.5606,257.8187,102.2588,0,U,59242,999,12730,-.19607262E-4,-.801E-5,0
STARLINK-31433,2024-049N,2026-06-15T02:14:09.514752,15.27536292,.00004121,43.0046,313.3741,285.8835,74.1971,0,U,59243,999,12730,.47473244E-3,.12807E-3,0
STARLINK-31285,2024-049P,2026-06-14T16:27:00.038304,15.27576703,.00013058,42.9999,315.4690,257.8496,102.2210,0,U,59244,999,12723,.11783775E-4,.62E-6,0
STARLINK-31284,2024-049R,2026-06-14T16:43:39.222336,15.27577156,.00025262,43.0036,315.5585,275.0458,85.0105,0,U,59246,999,12723,.21102475E-4,.318E-5,0
STARLINK-31424,2024-049S,2026-06-15T02:22:14.449440,15.27570332,.0001286,42.9975,309.9453,271.6108,88.4596,0,U,59247,999,12733,.32410775E-4,.63E-5,0
STARLINK-31405,2024-049T,2026-06-15T02:40:01.900704,15.27583429,.00017804,43.0009,313.5021,270.4704,89.5943,0,U,59248,999,12729,.68408979E-4,.1621E-4,0
STARLINK-31426,2024-049U,2026-06-14T17:20:39.508800,15.27573060,.00010811,43.0012,315.7391,286.5414,73.5319,0,U,59249,999,12723,-.13977005E-4,-.646E-5,0
STARLINK-31407,2024-049V,2026-06-15T02:25:16.513248,15.27577362,.00007917,43.0062,302.1796,257.7919,102.2844,0,U,59250,999,12742,.12777226E-4,.9E-6,0
STARLINK-31393,2024-049X,2026-06-14T15:41:40.390080,15.27583848,.0001059,43.0013,301.3748,276.0665,84.0066,0,U,59252,999,12740,.4067E-4,.857E-5,0
STARLINK-31425,2024-049Y,2026-06-14T16:38:06.224640,15.27576595,.00006299,43.0053,315.5319,250.7368,109.3415,0,U,59253,999,12723,.10295434E-4,.21E-6,0
STARLINK-31659,2024-050A,2026-06-15T11:41:17.885184,15.34383083,.0001308,53.1618,83.0641,99.9924,260.1226,0,U,59254,999,12672,.47281E-5,-.217E-5,0
STARLINK-31629,2024-050B,2026-06-15T12:03:44.648640,15.30181576,.0001154,53.1604,86.6993,94.7881,265.3252,0,U,59255,999,12552,.83858E-4,.2124E-4,0
STARLINK-31652,2024-050C,2026-06-15T11:36:22.315104,15.31693294,.000107,53.1615,86.5891,109.5155,250.5962,0,U,59256,999,12552,.11786E-3,.3293E-4,0
STARLINK-31637,2024-050E,2026-06-15T11:36:23.255136,15.30188644,.0001442,53.1612,86.5860,112.2366,247.8788,0,U,59258,999,12552,.28696E-4,.49E-5,0
STARLINK-31506,2024-050F,2026-06-15T11:59:10.565376,15.30194368,.0001122,53.1606,86.6832,90.5573,269.5556,0,U,59259,999,12552,-.21854E-4,-.1006E-4,0
